[{"OBJECT_NAME":"LEMUR-2-LLOYD","OBJECT_ID":"2024-149DP","EPOCH":"2026-03-09T11:02:25.245024","MEAN_MOTION":15.07168338,"ECCENTRICITY":0.00051866,"INCLINATION":97.678,"RA_OF_ASC_NODE":149.6779,"ARG_OF_PERICENTER":125.6096,"MEAN_ANOMALY":234.5616,"EPHEMERIS_TYPE":0,"CLASSIFICATION_TYPE":"U","NORAD_CAT_ID":60577,"ELEMENT_SET_NO":999,"REV_AT_EPOCH":8536,"BSTAR":0.00080142638,"MEAN_MOTION_DOT":0.00012007,"MEAN_MOTION_DDOT":0},{"OBJECT_NAME":"STARLINK-34945","OBJECT_ID":"2025-175M","EPOCH":"2026-03-09T15:31:15.623040","MEAN_MOTION":15.05654082,"ECCENTRICITY":0.0002954,"INCLINATION":97.6009,"RA_OF_ASC_NODE":302.6097,"ARG_OF_PERICENTER":93.254,"MEAN_ANOMALY":266.9025,"EPHEMERIS_TYPE":0,"CLASSIFICATION_TYPE":"U","NORAD_CAT_ID":65185,"ELEMENT_SET_NO":999,"REV_AT_EPOCH":3263,"BSTAR":0.00050854,"MEAN_MOTION_DOT":7.286e-5,"MEAN_MOTION_DDOT":0}]
